AISTECHSAT 2            
1 43768U 18099L   26183.60506938  .00006520  00000+0  34662-3 0  9998
2 43768  97.4280 231.3022 0003403 229.2591 130.8346 15.15604678414617
FOX-1CLIFF (AO-95)      
1 43770U 18099N   26183.60967049  .00011484  00000+0  43514-3 0  9996
2 43770  97.4375 243.8014 0006930 294.3124  65.7391 15.27038658415571
RANGE-A                 
1 43773U 18099R   26183.84754675  .00005869  00000+0  33092-3 0  9994
2 43773  97.3952 225.9690 0008520 296.4280  63.6077 15.13523059414866
SNUSAT-2                
1 43782U 18099AA  26183.58670595  .00008765  00000+0  38559-3 0  9994
2 43782  97.4045 236.7351 0009006 234.9023 125.1369 15.22071702415374
SNUGLITE                
1 43784U 18099AC  26183.60537426  .00012016  00000+0  44880-3 0  9992
2 43784  97.3855 237.7359 0002324 197.1791 162.9370 15.27517014415671
ITASAT                  
1 43786U 18099AE  26183.36904435  .00008093  00000+0  38656-3 0  9999
2 43786  97.4016 234.5787 0010879 302.6059  57.4125 15.19245229415210
EAGLET-I                
1 43790U 18099AJ  26183.59480438  .00004550  00000+0  26073-3 0  9995
2 43790  97.4219 232.8557 0009455 295.5575  64.4678 15.13055374414660
ESEO                    
1 43792U 18099AL  26183.81234177  .00001184  00000+0  89173-4 0  9990
2 43792  97.3961 220.5320 0010177 282.2962  77.7125 15.04292702414159
THEA                    
1 43796U 18099AQ  26183.64923196  .00019209  00000+0  55724-3 0  9992
2 43796  97.4435 253.4963 0006861 218.6577 141.4176 15.35546327415063
ASTROCAST 0.1           
1 43798U 18099AS  26183.69036396  .00038004  00000+0  66241-3 0  9996
2 43798  97.4377 262.6809 0005651 160.4018 199.7452 15.50626299416834
JY1SAT (JO-97)          
1 43803U 18099AX  26183.62196426  .00017868  00000+0  54208-3 0  9992
2 43803  97.4118 246.5140 0005651 198.6681 161.4355 15.34152879415996
SUOMI-100               
1 43804U 18099AY  26183.13169951  .00015147  00000+0  54328-3 0  9993
2 43804  97.4174 243.4719 0009224 218.5665 141.4917 15.28763890415706
CENTAURI-1              
1 43809U 18099BD  26183.11893147  .00006073  00000+0  31443-3 0  9998
2 43809  97.4209 234.5184 0012357 275.9310  84.0515 15.16512719414762
GLOBAL-2                
1 43812U 18099BG  26183.32928676  .00003882  00000+0  25083-3 0  9999
2 43812  97.3543 219.2129 0007560 101.5307 258.6771 15.08760428414198
SEAHAWK-1               
1 43820U 18099BQ  26183.57702534  .00009522  00000+0  40681-3 0  9996
2 43820  97.3944 235.8295 0006760 248.3121 111.7396 15.23057794414874
SAUDISAT 5A             
1 43831U 18102A   26183.88049663  .00006206  00000+0  22800-3 0  9993
2 43831  97.3058 245.1599 0011200  81.6491 278.6018 15.28212214418071
SAUDISAT 5B             
1 43833U 18102C   26183.83127748  .00005944  00000+0  21682-3 0  9996
2 43833  97.3166 248.2097 0011928  83.5881 276.6717 15.28460124418182
ISAT                    
1 43879U 18111D   26183.55530416  .00109751  00000+0  97091-3 0  9993
2 43879  97.5869 119.9899 0005179 159.7546 200.3921 15.68276951413579
UWE-4                   
1 43880U 18111E   26183.74326685  .00032995  00000+0  65109-3 0  9997
2 43880  97.5847 112.8616 0004413 254.2449 105.8314 15.47102682413187
D-STAR ONE (SPARROW)    
1 43881U 18111F   26183.36202675  .00219348  00000+0  11795-2 0  9998
2 43881  97.6097 125.6990 0006092 138.4422 221.7309 15.79599179413764
JILIN-1 09              
1 43943U 19005B   26183.84196103  .00005587  00000+0  25764-3 0  9991
2 43943  97.4747 278.6721 0003270  62.7959 297.3609 15.20652166411529
JILIN-1 10              
1 43946U 19005E   26183.80055337  .00007330  00000+0  28866-3 0  9997
2 43946  97.4796 282.6065 0007364 213.9631 146.1136 15.25892215411697
EGYPTSAT-A (MISRSAT-A)  
1 44047U 19008A   26183.91023404  .00000448  00000+0  78602-4 0  9992
2 44047  98.0190 248.4604 0001587  97.6367 262.5021 14.72324690395558
EMISAT                  
1 44078U 19018A   26183.87740486  .00000215  00000+0  76139-4 0  9993
2 44078  98.4639 242.5912 0018588 167.0444 193.1228 14.43644563382329
JILIN-1 GAOFEN 3A       
1 44312U 19032C   26183.72632579  .00011847  00000+0  37372-3 0  9995
2 44312  44.9743 271.3960 0005364  18.4513 341.6565 15.32971427390222
WT 1B                   
1 44316U 19032G   26183.83129981  .00011090  00000+0  41434-3 0  9993
2 44316  44.9719 335.5307 0009667 326.9404  33.0874 15.27498944389475
PROX-1                  
1 44339U 19036A   26183.85363380  .00017400  00000+0  16868-2 0  9990
2 44339  23.9963   9.5714 0005313 218.6502 141.3618 14.91007399375810
NPSAT1                  
1 44340U 19036B   26183.47828868  .00006540  00000+0  92078-3 0  9998
2 44340  23.9982 118.1554 0007341  27.0064 333.0813 14.74718407374759
FORMOSAT 7-3            
1 44343U 19036E   26183.78022014  .00005535  00000+0  31173-3 0  9996
2 44343  23.9994  71.2101 0001027  97.3502 262.7118 15.09911967385601
