OBJECT_NAME,OBJECT_ID,EPOCH,MEAN_MOTION,ECCENTRICITY,INCLINATION,RA_OF_ASC_NODE,ARG_OF_PERICENTER,MEAN_ANOMALY,EPHEMERIS_TYPE,CLASSIFICATION_TYPE,NORAD_CAT_ID,ELEMENT_SET_NO,REV_AT_EPOCH,BSTAR,MEAN_MOTION_DOT,MEAN_MOTION_DDOT
AISTECHSAT 2,2018-099L,2026-07-02T14:31:17.994432,15.15604678,.0003403,97.4280,231.3022,229.2591,130.8346,0,U,43768,999,41461,.34662E-3,.652E-4,0
FOX-1CLIFF (AO-95),2018-099N,2026-07-02T14:37:55.530336,15.27038658,.000693,97.4375,243.8014,294.3124,65.7391,0,U,43770,999,41557,.43514E-3,.11484E-3,0
RANGE-A,2018-099R,2026-07-02T20:20:28.039200,15.13523059,.000852,97.3952,225.9690,296.4280,63.6077,0,U,43773,999,41486,.33092E-3,.5869E-4,0
SNUSAT-2,2018-099AA,2026-07-02T14:04:51.394080,15.22071702,.0009006,97.4045,236.7351,234.9023,125.1369,0,U,43782,999,41537,.38559E-3,.8765E-4,0
SNUGLITE,2018-099AC,2026-07-02T14:31:44.336064,15.27517014,.0002324,97.3855,237.7359,197.1791,162.9370,0,U,43784,999,41567,.4488E-3,.12016E-3,0
ITASAT,2018-099AE,2026-07-02T08:51:25.431840,15.19245229,.0010879,97.4016,234.5787,302.6059,57.4125,0,U,43786,999,41521,.38656E-3,.8093E-4,0
EAGLET-I,2018-099AJ,2026-07-02T14:16:31.098432,15.13055374,.0009455,97.4219,232.8557,295.5575,64.4678,0,U,43790,999,41466,.26073E-3,.455E-4,0
ESEO,2018-099AL,2026-07-02T19:29:46.328928,15.04292702,.0010177,97.3961,220.5320,282.2962,77.7125,0,U,43792,999,41415,.89173E-4,.1184E-4,0
THEA,2018-099AQ,2026-07-02T15:34:53.641344,15.35546327,.0006861,97.4435,253.4963,218.6577,141.4176,0,U,43796,999,41506,.55724E-3,.19209E-3,0
ASTROCAST 0.1,2018-099AS,2026-07-02T16:34:07.446144,15.50626299,.0005651,97.4377,262.6809,160.4018,199.7452,0,U,43798,999,41683,.66241E-3,.38004E-3,0
JY1SAT (JO-97),2018-099AX,2026-07-02T14:55:37.712064,15.34152879,.0005651,97.4118,246.5140,198.6681,161.4355,0,U,43803,999,41599,.54208E-3,.17868E-3,0
SUOMI-100,2018-099AY,2026-07-02T03:09:38.837664,15.28763890,.0009224,97.4174,243.4719,218.5665,141.4917,0,U,43804,999,41570,.54328199E-3,.15147E-3,0
CENTAURI-1,2018-099BD,2026-07-02T02:51:15.679008,15.16512719,.00123573,97.4209,234.5184,275.9310,84.0515,0,U,43809,999,41476,.31443236E-3,.6073E-4,0
GLOBAL-2,2018-099BG,2026-07-02T07:54:10.376064,15.08760428,.000756,97.3543,219.2129,101.5307,258.6771,0,U,43812,999,41419,.25083E-3,.3882E-4,0
SEAHAWK-1,2018-099BQ,2026-07-02T13:50:54.989376,15.23057794,.000676,97.3944,235.8295,248.3121,111.7396,0,U,43820,999,41487,.40681E-3,.9522E-4,0
SAUDISAT 5A,2018-102A,2026-07-02T21:07:54.908832,15.28212214,.00112,97.3058,245.1599,81.6491,278.6018,0,U,43831,999,41807,.228E-3,.6206E-4,0
SAUDISAT 5B,2018-102C,2026-07-02T19:57:02.374272,15.28460124,.0011928,97.3166,248.2097,83.5881,276.6717,0,U,43833,999,41818,.21682E-3,.5944E-4,0
ISAT,2018-111D,2026-07-02T13:19:38.279424,15.68276951,.0005179,97.5869,119.9899,159.7546,200.3921,0,U,43879,999,41357,.97091E-3,.109751E-2,0
UWE-4,2018-111E,2026-07-02T17:50:18.255840,15.47102682,.0004413,97.5847,112.8616,254.2449,105.8314,0,U,43880,999,41318,.65109E-3,.32995E-3,0
D-STAR ONE (SPARROW),2018-111F,2026-07-02T08:41:19.111200,15.79599179,.0006092,97.6097,125.6990,138.4422,221.7309,0,U,43881,999,41376,.11795E-2,.219348E-2,0
JILIN-1 09,2019-005B,2026-07-02T20:12:25.432992,15.20652166,.000327,97.4747,278.6721,62.7959,297.3609,0,U,43943,999,41152,.25764E-3,.5587E-4,0
JILIN-1 10,2019-005E,2026-07-02T19:12:47.811168,15.25892215,.0007364,97.4796,282.6065,213.9631,146.1136,0,U,43946,999,41169,.28866E-3,.733E-4,0
EGYPTSAT-A (MISRSAT-A),2019-008A,2026-07-02T21:50:44.221056,14.72324690,.0001587,98.0190,248.4604,97.6367,262.5021,0,U,44047,999,39555,.78602E-4,.448E-5,0
EMISAT,2019-018A,2026-07-02T21:03:27.779904,14.43644563,.0018588,98.4639,242.5912,167.0444,193.1228,0,U,44078,999,38232,.76139E-4,.215E-5,0
JILIN-1 GAOFEN 3A,2019-032C,2026-07-02T17:25:54.548256,15.32971427,.0005364,44.9743,271.3960,18.4513,341.6565,0,U,44312,999,39022,.37372E-3,.11847E-3,0
WT 1B,2019-032G,2026-07-02T19:57:04.303584,15.27498944,.0009667,44.9719,335.5307,326.9404,33.0874,0,U,44316,999,38947,.41434E-3,.1109E-3,0
PROX-1,2019-036A,2026-07-02T20:29:13.960320,14.91007399,.0005313,23.9963,9.5714,218.6502,141.3618,0,U,44339,999,37581,.16868E-2,.174E-3,0
NPSAT1,2019-036B,2026-07-02T11:28:44.141952,14.74718407,.0007341,23.9982,118.1554,27.0064,333.0813,0,U,44340,999,37475,.92078E-3,.654E-4,0
FORMOSAT 7-3,2019-036E,2026-07-02T18:43:31.020096,15.09911967,.0001027,23.9994,71.2101,97.3502,262.7118,0,U,44343,999,38560,.31173E-3,.5535E-4,0
